STARLINK-1725
1 26334C 20062K   21325.18142267 -.00002257  00000-0 -15124-3 0  3251
2 26334  53.0523 202.4109 0001752  75.8660 140.0172 15.06391898    11
